{"type": "FeatureCollection", "features": [ {"type": "Feature", "properties": {"norad_id": 41335, "name": "SENTINEL-3A", "group": "resource", "lat": -80.86557630489813, "lon": 123.41895862869606, "alt_km": 810.6916210045383, "timestamp": "2025-12-13T13:34:34.732057+00:00", "meta": {"OBJECT_NAME": "SENTINEL-3A", "OBJECT_ID": "2016-011A", "EPOCH": "2025-12-13T00:31:07.394304", "MEAN_MOTION": 14.26730937, "ECCENTRICITY": 9.523e-05, "INCLINATION": 98.6315, "RA_OF_ASC_NODE": 52.0294, "ARG_OF_PERICENTER": 91.1064, "MEAN_ANOMALY": 269.0226, "EPHEMERIS_TYPE": 0, "CLASSIFICATION_TYPE": "U", "NORAD_CAT_ID": 41335, "ELEMENT_SET_NO": 999, "REV_AT_EPOCH": 51151, "BSTAR": 0.00012957783, "MEAN_MOTION_DOT": 2.7e-06, "MEAN_MOTION_DDOT": 0}, "tle": {"line1": "1 41335U 16011A   25347.02161336  .00000270  00000+0  12958-3 0  9994", "line2": "2 41335  98.6315  52.0294 0000952  91.1064 269.0226 14.26730937511511"}}, "geometry": {"type": "Point", "coordinates": [123.41895862869606, -80.86557630489813]}}, {"type": "Feature", "properties": {"norad_id": 41556, "name": "ZIYUAN 3-2 (ZY 3-2)", "group": "resource", "lat": -53.337856738691016, "lon": 71.78088312471036, "alt_km": 503.99318879708517, "timestamp": "2025-12-13T13:34:34.732066+00:00", "meta": {"OBJECT_NAME": "ZIYUAN 3-2 (ZY 3-2)", "OBJECT_ID": "2016-033A", "EPOCH": "2025-12-12T23:36:27.778176", "MEAN_MOTION": 15.21508001, "ECCENTRICITY": 0.00124978, "INCLINATION": 97.4042, "RA_OF_ASC_NODE": 61.1468, "ARG_OF_PERICENTER": 248.0735, "MEAN_ANOMALY": 111.9173, "EPHEMERIS_TYPE": 0, "CLASSIFICATION_TYPE": "U", "NORAD_CAT_ID": 41556, "ELEMENT_SET_NO": 999, "REV_AT_EPOCH": 52967, "BSTAR": 0.00046084695, "MEAN_MOTION_DOT": 0.00010329, "MEAN_MOTION_DDOT": 0}, "tle": {"line1": "1 41556U 16033A   25346.98365484  .00010329  00000+0  46085-3 0  9991", "line2": "2 41556  97.4042  61.1468 0012497 248.0735 111.9173 15.21508001529672"}}, "geometry": {"type": "Point", "coordinates": [71.78088312471036, -53.337856738691016]}}, {"type": "Feature", "properties": {"norad_id": 41599, "name": "CARTOSAT-2C", "group": "resource", "lat": -62.42887844313596, "lon": -149.75991871849368, "alt_km": 522.6271107100592, "timestamp": "2025-12-13T13:34:34.732075+00:00", "meta": {"OBJECT_NAME": "CARTOSAT-2C", "OBJECT_ID": "2016-040A", "EPOCH": "2025-12-13T01:26:39.071616", "MEAN_MOTION": 15.19299031, "ECCENTRICITY": 0.00108573, "INCLINATION": 97.4766, "RA_OF_ASC_NODE": 44.307, "ARG_OF_PERICENTER": 63.9487, "MEAN_ANOMALY": 296.2864, "EPHEMERIS_TYPE": 0, "CLASSIFICATION_TYPE": "U", "NORAD_CAT_ID": 41599, "ELEMENT_SET_NO": 999, "REV_AT_EPOCH": 52545, "BSTAR": 0.00031631097, "MEAN_MOTION_DOT": 6.618e-05, "MEAN_MOTION_DDOT": 0}, "tle": {"line1": "1 41599U 16040A   25347.06017444  .00006618  00000+0  31631-3 0  9993", "line2": "2 41599  97.4766  44.3070 0010857  63.9487 296.2864 15.19299031525453"}}, "geometry": {"type": "Point", "coordinates": [-149.75991871849368, -62.42887844313596]}}, {"type": "Feature", "properties": {"norad_id": 41601, "name": "SKYSAT-C1", "group": "resource", "lat": -22.001559571661574, "lon": 27.371505030484307, "alt_km": 472.17034477186553, "timestamp": "2025-12-13T13:34:34.732085+00:00", "meta": {"OBJECT_NAME": "SKYSAT-C1", "OBJECT_ID": "2016-040C", "EPOCH": "2025-12-12T20:26:09.515328", "MEAN_MOTION": 15.32593045, "ECCENTRICITY": 0.00023392, "INCLINATION": 96.983, "RA_OF_ASC_NODE": 23.8587, "ARG_OF_PERICENTER": 15.0651, "MEAN_ANOMALY": 345.0662, "EPHEMERIS_TYPE": 0, "CLASSIFICATION_TYPE": "U", "NORAD_CAT_ID": 41601, "ELEMENT_SET_NO": 999, "REV_AT_EPOCH": 52929, "BSTAR": 0.00043499396, "MEAN_MOTION_DOT": 0.00013629, "MEAN_MOTION_DDOT": 0}, "tle": {"line1": "1 41601U 16040C   25346.85149902  .00013629  00000+0  43499-3 0  9993", "line2": "2 41601  96.9830  23.8587 0002339  15.0651 345.0662 15.32593045529297"}}, "geometry": {"type": "Point", "coordinates": [27.371505030484307, -22.001559571661574]}}, {"type": "Feature", "properties": {"norad_id": 41603, "name": "LAPAN-A3", "group": "resource", "lat": 60.46601201308265, "lon": 177.88089931568476, "alt_km": 470.8802218977171, "timestamp": "2025-12-13T13:34:34.732093+00:00", "meta": {"OBJECT_NAME": "LAPAN-A3", "OBJECT_ID": "2016-040E", "EPOCH": "2025-12-13T00:30:56.055168", "MEAN_MOTION": 15.31554848, "ECCENTRICITY": 0.00095966, "INCLINATION": 97.1433, "RA_OF_ASC_NODE": 344.5675, "ARG_OF_PERICENTER": 332.9582, "MEAN_ANOMALY": 27.1159, "EPHEMERIS_TYPE": 0, "CLASSIFICATION_TYPE": "U", "NORAD_CAT_ID": 41603, "ELEMENT_SET_NO": 999, "REV_AT_EPOCH": 52630, "BSTAR": 0.00020607993, "MEAN_MOTION_DOT": 6.213e-05, "MEAN_MOTION_DDOT": 0}, "tle": {"line1": "1 41603U 16040E   25347.02148212  .00006213  00000+0  20608-3 0  9996", "line2": "2 41603  97.1433 344.5675 0009596 332.9582  27.1159 15.31554848526303"}}, "geometry": {"type": "Point", "coordinates": [177.88089931568476, 60.46601201308265]}}, {"type": "Feature", "properties": {"norad_id": 41604, "name": "BIROS", "group": "resource", "lat": 64.15964156646773, "lon": -146.120391196586, "alt_km": 293.84414450752865, "timestamp": "2025-12-13T13:34:34.732103+00:00", "meta": {"OBJECT_NAME": "BIROS", "OBJECT_ID": "2016-040F", "EPOCH": "2025-12-12T15:56:49.185024", "MEAN_MOTION": 15.89700477, "ECCENTRICITY": 0.00033958, "INCLINATION": 97.069, "RA_OF_ASC_NODE": 18.094, "ARG_OF_PERICENTER": 150.0961, "MEAN_ANOMALY": 210.0507, "EPHEMERIS_TYPE": 0, "CLASSIFICATION_TYPE": "U", "NORAD_CAT_ID": 41604, "ELEMENT_SET_NO": 999, "REV_AT_EPOCH": 52871, "BSTAR": 0.00075384417, "MEAN_MOTION_DOT": 0.00220233, "MEAN_MOTION_DDOT": 1.9447493e-05}, "tle": {"line1": "1 41604U 16040F   25346.66445816  .00220233  19447-4  75384-3 0  9997", "line2": "2 41604  97.0690  18.0940 0003395 150.0961 210.0507 15.89700477528718"}}, "geometry": {"type": "Point", "coordinates": [-146.120391196586, 64.15964156646773]}}, {"type": "Feature", "properties": {"norad_id": 41727, "name": "GAOFEN-3", "group": "resource", "lat": -9.310527369421978, "lon": -5.471940988342053, "alt_km": 754.895659487067, "timestamp": "2025-12-13T13:34:34.732112+00:00", "meta": {"OBJECT_NAME": "GAOFEN-3", "OBJECT_ID": "2016-049A", "EPOCH": "2025-12-13T00:17:57.301728", "MEAN_MOTION": 14.42214033, "ECCENTRICITY": 0.00014195, "INCLINATION": 98.4044, "RA_OF_ASC_NODE": 352.5944, "ARG_OF_PERICENTER": 60.3083, "MEAN_ANOMALY": 299.8248, "EPHEMERIS_TYPE": 0, "CLASSIFICATION_TYPE": "U", "NORAD_CAT_ID": 41727, "ELEMENT_SET_NO": 999, "REV_AT_EPOCH": 49181, "BSTAR": 8.5786751e-05, "MEAN_MOTION_DOT": 2.39e-06, "MEAN_MOTION_DDOT": 0}, "tle": {"line1": "1 41727U 16049A   25347.01246877  .00000239  00000+0  85787-4 0  9999", "line2": "2 41727  98.4044 352.5944 0001419  60.3083 299.8248 14.42214033491818"}}, "geometry": {"type": "Point", "coordinates": [-5.471940988342053, -9.310527369421978]}}, {"type": "Feature", "properties": {"norad_id": 41771, "name": "SKYSAT-C4", "group": "resource", "lat": -57.53907296743957, "lon": 23.74995337303814, "alt_km": 447.5715353727155, "timestamp": "2025-12-13T13:34:34.732121+00:00", "meta": {"OBJECT_NAME": "SKYSAT-C4", "OBJECT_ID": "2016-058B", "EPOCH": "2025-12-12T23:48:49.840128", "MEAN_MOTION": 15.42258103, "ECCENTRICITY": 0.00015484, "INCLINATION": 96.9382, "RA_OF_ASC_NODE": 12.1675, "ARG_OF_PERICENTER": 133.444, "MEAN_ANOMALY": 226.6938, "EPHEMERIS_TYPE": 0, "CLASSIFICATION_TYPE": "U", "NORAD_CAT_ID": 41771, "ELEMENT_SET_NO": 999, "REV_AT_EPOCH": 51671, "BSTAR": 0.00049169266, "MEAN_MOTION_DOT": 0.00021089, "MEAN_MOTION_DDOT": 0}, "tle": {"line1": "1 41771U 16058B   25346.99224352  .00021089  00000+0  49169-3 0  9997", "line2": "2 41771  96.9382  12.1675 0001548 133.4440 226.6938 15.42258103516715"}}, "geometry": {"type": "Point", "coordinates": [23.74995337303814, -57.53907296743957]}}, {"type": "Feature", "properties": {"norad_id": 41772, "name": "SKYSAT-C5", "group": "resource", "lat": -11.982768528589682, "lon": -150.22880147124943, "alt_km": 465.37465589170006, "timestamp": "2025-12-13T13:34:34.732130+00:00", "meta": {"OBJECT_NAME": "SKYSAT-C5", "OBJECT_ID": "2016-058C", "EPOCH": "2025-12-12T21:05:41.510688", "MEAN_MOTION": 15.34770392, "ECCENTRICITY": 0.00010518, "INCLINATION": 97.0765, "RA_OF_ASC_NODE": 30.6231, "ARG_OF_PERICENTER": 206.7689, "MEAN_ANOMALY": 153.3501, "EPHEMERIS_TYPE": 0, "CLASSIFICATION_TYPE": "U", "NORAD_CAT_ID": 41772, "ELEMENT_SET_NO": 999, "REV_AT_EPOCH": 51518, "BSTAR": 0.00042060315, "MEAN_MOTION_DOT": 0.00014112, "MEAN_MOTION_DDOT": 0}, "tle": {"line1": "1 41772U 16058C   25346.87895267  .00014112  00000+0  42060-3 0  9996", "line2": "2 41772  97.0765  30.6231 0001051 206.7689 153.3501 15.34770392515186"}}, "geometry": {"type": "Point", "coordinates": [-150.22880147124943, -11.982768528589682]}}, {"type": "Feature", "properties": {"norad_id": 41773, "name": "SKYSAT-C2", "group": "resource", "lat": -31.641569885393448, "lon": -172.3079107333131, "alt_km": 463.1492837708083, "timestamp": "2025-12-13T13:34:34.732139+00:00", "meta": {"OBJECT_NAME": "SKYSAT-C2", "OBJECT_ID": "2016-058D", "EPOCH": "2025-12-13T00:09:36.634464", "MEAN_MOTION": 15.37279313, "ECCENTRICITY": 0.00042142, "INCLINATION": 97.0368, "RA_OF_ASC_NODE": 11.522, "ARG_OF_PERICENTER": 33.7062, "MEAN_ANOMALY": 326.4451, "EPHEMERIS_TYPE": 0, "CLASSIFICATION_TYPE": "U", "NORAD_CAT_ID": 41773, "ELEMENT_SET_NO": 999, "REV_AT_EPOCH": 51640, "BSTAR": 0.00045670265, "MEAN_MOTION_DOT": 0.00016623, "MEAN_MOTION_DDOT": 0}, "tle": {"line1": "1 41773U 16058D   25347.00667401  .00016623  00000+0  45670-3 0  9999", "line2": "2 41773  97.0368  11.5220 0004214  33.7062 326.4451 15.37279313516402"}}, "geometry": {"type": "Point", "coordinates": [-172.3079107333131, -31.641569885393448]}}]}